$$SOE
2460728.500000000, A.D. 2025-Feb-22 00:00:00.0000, -4.958877947286462E+08, -2.071269566097288E+07, 2.295317405520464E+07,
2460735.500000000, A.D. 2025-Mar-01 00:00:00.0000, -4.958496268454258E+08, -2.988651921108120E+07, 2.460337104656030E+07,
2460742.500000000, A.D. 2025-Mar-08 00:00:00.0000, -4.956157832362546E+08, -3.904860289210901E+07, 2.624385918591963E+07,
2460749.500000000, A.D. 2025-Mar-15 00:00:00.0000, -4.951869238416770E+08, -4.819537451193652E+07, 2.787402104999887E+07,
2460756.500000000, A.D. 2025-Mar-22 00:00:00.0000, -4.945637573315226E+08, -5.732328412950436E+07, 2.949324570069171E+07,
2460763.500000000, A.D. 2025-Mar-29 00:00:00.0000, -4.937470412934510E+08, -6.642880566818437E+07, 3.110092855546909E+07,
2460770.500000000, A.D. 2025-Apr-05 00:00:00.0000, -4.927375807685509E+08, -7.550843763539316E+07, 3.269647117589296E+07,
2460777.500000000, A.D. 2025-Apr-12 00:00:00.0000, -4.915362270563419E+08, -8.455870284676091E+07, 3.427928115901084E+07,
2460784.500000000, A.D. 2025-Apr-19 00:00:00.0000, -4.901438769753188E+08, -9.357614803965345E+07, 3.584877207643309E+07,
2460791.500000000, A.D. 2025-Apr-26 00:00:00.0000, -4.885614723084926E+08, -1.025573435817918E+08, 3.740436341950929E+07,
2460798.500000000, A.D. 2025-May-03 00:00:00.0000, -4.867899993218160E+08, -1.114988832572095E+08, 3.894548054189989E+07,
2460805.500000000, A.D. 2025-May-10 00:00:00.0000, -4.848304883279462E+08, -1.203973841214310E+08, 4.047155459787682E+07,
2460812.500000000, A.D. 2025-May-17 00:00:00.0000, -4.826840132588893E+08, -1.292494864671019E+08, 4.198202246988136E+07,
2460819.500000000, A.D. 2025-May-24 00:00:00.0000, -4.803516910732286E+08, -1.380518539547157E+08, 4.347632666515827E+07,
2460826.500000000, A.D. 2025-May-31 00:00:00.0000, -4.778346805792774E+08, -1.468011735977429E+08, 4.495391516874033E+07,
2460833.500000000, A.D. 2025-Jun-07 00:00:00.0000, -4.751341810737497E+08, -1.554941543978565E+08, 4.641424138813326E+07,
2460840.500000000, A.D. 2025-Jun-14 00:00:00.0000, -4.722514331591596E+08, -1.641275252981867E+08, 4.785676435214816E+07,
2460847.500000000, A.D. 2025-Jun-21 00:00:00.0000, -4.691877205230470E+08, -1.726980357275169E+08, 4.928094878514345E+07,
2460854.500000000, A.D. 2025-Jun-28 00:00:00.0000, -4.659443695510911E+08, -1.812024569714184E+08, 5.068626491433665E+07,
2460861.500000000, A.D. 2025-Jul-05 00:00:00.0000, -4.625227482896003E+08, -1.896375822138327E+08, 5.207218832573958E+07,
2460868.500000000, A.D. 2025-Jul-12 00:00:00.0000, -4.589242659466038E+08, -1.980002260551836E+08, 5.343819991217449E+07,
2460875.500000000, A.D. 2025-Jul-19 00:00:00.0000, -4.551503727410827E+08, -2.062872240835385E+08, 5.478378584909463E+07,
2460882.500000000, A.D. 2025-Jul-26 00:00:00.0000, -4.512025598902410E+08, -2.144954325566989E+08, 5.610843757459687E+07,
2460889.500000000, A.D. 2025-Aug-02 00:00:00.0000, -4.470823596692736E+08, -2.226217281744545E+08, 5.741165176973061E+07,
2460896.500000000, A.D. 2025-Aug-09 00:00:00.0000, -4.427913455198010E+08, -2.306630079562949E+08, 5.869293033609352E+07,
2460903.500000000, A.D. 2025-Aug-16 00:00:00.0000, -4.383311321294762E+08, -2.386161892884478E+08, 5.995178035882749E+07,
2460910.500000000, A.D. 2025-Aug-23 00:00:00.0000, -4.337033751895701E+08, -2.464782101244116E+08, 6.118771402988524E+07,
2460917.500000000, A.D. 2025-Aug-30 00:00:00.0000, -4.289097705009281E+08, -2.542460286255418E+08, 6.240024856011208E+07,
2460924.500000000, A.D. 2025-Sep-06 00:00:00.0000, -4.239520538454273E+08, -2.619166212420574E+08, 6.358890629225691E+07,
2460931.500000000, A.D. 2025-Sep-13 00:00:00.0000, -4.188320032927920E+08, -2.694869817186123E+08, 6.475321496555069E+07,
2460938.500000000, A.D. 2025-Sep-20 00:00:00.0000, -4.135514406697832E+08, -2.769541226706089E+08, 6.589270769780818E+07,
2460945.500000000, A.D. 2025-Sep-27 00:00:00.0000, -4.081122311336009E+08, -2.843150766204843E+08, 6.700692284287314E+07,
2460952.500000000, A.D. 2025-Oct-04 00:00:00.0000, -4.025162828654140E+08, -2.915668959548530E+08, 6.809540395275781E+07,
2460959.500000000, A.D. 2025-Oct-11 00:00:00.0000, -3.967655472564013E+08, -2.987066527461615E+08, 6.915769980178224E+07,
2460966.500000000, A.D. 2025-Oct-18 00:00:00.0000, -3.908620193018182E+08, -3.057314387145938E+08, 7.019336442440782E+07,
2460973.500000000, A.D. 2025-Oct-25 00:00:00.0000, -3.848077380633692E+08, -3.126383653206590E+08, 7.120195715512258E+07,
2460980.500000000, A.D. 2025-Nov-01 00:00:00.0000, -3.786047871605265E+08, -3.194245639740825E+08, 7.218304266831067E+07,
2460987.500000000, A.D. 2025-Nov-08 00:00:00.0000, -3.722552952562972E+08, -3.260871863911722E+08, 7.313619101259440E+07,
2460994.500000000, A.D. 2025-Nov-15 00:00:00.0000, -3.657614363895251E+08, -3.326234051596680E+08, 7.406097762143752E+07,
2461001.500000000, A.D. 2025-Nov-22 00:00:00.0000, -3.591254297507645E+08, -3.390304142910320E+08, 7.495698328107265E+07,
2461008.500000000, A.D. 2025-Nov-29 00:00:00.0000, -3.523495390540667E+08, -3.453054286247289E+08, 7.582379416234380E+07,
2461015.500000000, A.D. 2025-Dec-06 00:00:00.0000, -3.454360737801927E+08, -3.514456822200401E+08, 7.666100211371765E+07,
2461022.500000000, A.D. 2025-Dec-13 00:00:00.0000, -3.383873918553607E+08, -3.574484291066530E+08, 7.746820489979631E+07,
2461029.500000000, A.D. 2025-Dec-20 00:00:00.0000, -3.312059002712459E+08, -3.633109453731437E+08, 7.824500614863259E+07,
2461036.500000000, A.D. 2025-Dec-27 00:00:00.0000, -3.238940547196764E+08, -3.690305300040119E+08, 7.899101531851369E+07,
2461043.500000000, A.D. 2026-Jan-03 00:00:00.0000, -3.164543597008843E+08, -3.746045050821009E+08, 7.970584776816909E+07,
2461050.500000000, A.D. 2026-Jan-10 00:00:00.0000, -3.088893689951595E+08, -3.800302160362809E+08, 8.038912486525869E+07,
2461057.500000000, A.D. 2026-Jan-17 00:00:00.0000, -3.012016862649035E+08, -3.853050320268030E+08, 8.104047410474186E+07,
2461064.500000000, A.D. 2026-Jan-24 00:00:00.0000, -2.933939657086534E+08, -3.904263464463819E+08, 8.165952923228651E+07,
2461071.500000000, A.D. 2026-Jan-31 00:00:00.0000, -2.854689127429841E+08, -3.953915775449384E+08, 8.224593037040490E+07,
2461078.500000000, A.D. 2026-Feb-07 00:00:00.0000, -2.774292846498731E+08, -4.001981692357329E+08, 8.279932413737112E+07,
2461085.500000000, A.D. 2026-Feb-14 00:00:00.0000, -2.692778909353338E+08, -4.048435920986335E+08, 8.331936373478642E+07,
2461092.500000000, A.D. 2026-Feb-21 00:00:00.0000, -2.610175930104842E+08, -4.093253440040472E+08, 8.380570901569957E+07,
2461099.500000000, A.D. 2026-Feb-28 00:00:00.0000, -2.526513042783720E+08, -4.136409492045569E+08, 8.425802672723256E+07,
2461106.500000000, A.D. 2026-Mar-07 00:00:00.0000, -2.441819926830553E+08, -4.177879578450841E+08, 8.467599095720325E+07,
2461113.500000000, A.D. 2026-Mar-14 00:00:00.0000, -2.356126829432839E+08, -4.217639482264291E+08, 8.505928333981086E+07,
2461120.500000000, A.D. 2026-Mar-21 00:00:00.0000, -2.269464566867856E+08, -4.255665289268350E+08, 8.540759309436719E+07,
2461127.500000000, A.D. 2026-Mar-28 00:00:00.0000, -2.181864524934450E+08, -4.291933397546937E+08, 8.572061716601452E+07,
2461134.500000000, A.D. 2026-Apr-04 00:00:00.0000, -2.093358664494283E+08, -4.326420524993273E+08, 8.599806044523554E+07,
2461141.500000000, A.D. 2026-Apr-11 00:00:00.0000, -2.003979529362090E+08, -4.359103718411947E+08, 8.623963601188001E+07,
2461148.500000000, A.D. 2026-Apr-18 00:00:00.0000, -1.913760254927478E+08, -4.389960364300301E+08, 8.644506538887459E+07,
2461155.500000000, A.D. 2026-Apr-25 00:00:00.0000, -1.822734577024591E+08, -4.418968201184481E+08, 8.661407880310403E+07,
2461162.500000000, A.D. 2026-May-02 00:00:00.0000, -1.730936840718386E+08, -4.446105333830090E+08, 8.674641544885227E+07,
2461169.500000000, A.D. 2026-May-09 00:00:00.0000, -1.638402007737649E+08, -4.471350250011597E+08, 8.684182373756805E+07,
2461176.500000000, A.D. 2026-May-16 00:00:00.0000, -1.545165658750680E+08, -4.494681838476387E+08, 8.690006151107803E+07,
2461183.500000000, A.D. 2026-May-23 00:00:00.0000, -1.451263989939825E+08, -4.516079397895216E+08, 8.692089629732783E+07,
2461190.500000000, A.D. 2026-May-30 00:00:00.0000, -1.356733824629927E+08, -4.535522633612468E+08, 8.690410582531855E+07,
2461197.500000000, A.D. 2026-Jun-06 00:00:00.0000, -1.261612643105955E+08, -4.552991674940597E+08, 8.684947856045425E+07,
2461204.500000000, A.D. 2026-Jun-13 00:00:00.0000, -1.165938593920355E+08, -4.568467111030210E+08, 8.675681394024511E+07,
2461211.500000000, A.D. 2026-Jun-20 00:00:00.0000, -1.069750491664855E+08, -4.581930016079772E+08, 8.662592259563920E+07,
2461218.500000000, A.D. 2026-Jun-27 00:00:00.0000, -9.730878181536433E+07, -4.593361967303398E+08, 8.645662668604533E+07,
2461225.500000000, A.D. 2026-Jul-04 00:00:00.0000, -8.759907269790341E+07, -4.602745063423951E+08, 8.624876028472076E+07,
2461232.500000000, A.D. 2026-Jul-11 00:00:00.0000, -7.785000488588792E+07, -4.610061945029636E+08, 8.600216978046988E+07,
2461239.500000000, A.D. 2026-Jul-18 00:00:00.0000, -6.806572968064433E+07, -4.615295816556495E+08, 8.571671428931147E+07,
2461246.500000000, A.D. 2026-Jul-25 00:00:00.0000, -5.825046708369483E+07, -4.618430469889134E+08, 8.539226607421955E+07,
2461253.500000000, A.D. 2026-Aug-01 00:00:00.0000, -4.840850616903307E+07, -4.619450310076488E+08, 8.502871096468408E+07,
2461260.500000000, A.D. 2026-Aug-08 00:00:00.0000, -3.854420513811625E+07, -4.618340383528495E+08, 8.462594875328355E+07,
2461267.500000000, A.D. 2026-Aug-15 00:00:00.0000, -2.866199063785003E+07, -4.615086404188535E+08, 8.418389356750132E+07,
2461274.500000000, A.D. 2026-Aug-22 00:00:00.0000, -1.876635709694704E+07, -4.609674765463580E+08, 8.370247438570306E+07,
2461281.500000000, A.D. 2026-Aug-29 00:00:00.0000, -8.861868363037316E+06, -4.602092551634116E+08, 8.318163579434311E+07,
2461288.500000000, A.D. 2026-Sep-05 00:00:00.0000, 1.046840500624505E+06, -4.592327577430841E+08, 8.262133855605103E+07,
$$EOE